{
  "norad_id": 67374,
  "name": "AETHER-3",
  "history": [
    {
      "epoch": "2026-03-28T22:33:13.796064",
      "apogee_km": 607.8964954380799,
      "perigee_km": 600.1128039270134,
      "latitude_deg": -6.043478709652088,
      "longitude_deg": -72.38467104011215,
      "semi_major_axis_km": 6982.141649682547,
      "eccentricity": 0.0005574,
      "inclination_deg": 97.7997,
      "raan_deg": 87.8379,
      "arg_perigee_deg": 48.6784,
      "mean_anomaly_deg": 311.4912,
      "mean_motion_rev_day": 14.88057726
    }
  ]
}